{
  "norad_id": 56785,
  "name": "STARLINK-5931",
  "history": [
    {
      "epoch": "2026-03-28T21:26:32.744256",
      "apogee_km": 574.0092348041908,
      "perigee_km": 570.0934986783695,
      "latitude_deg": 12.096721879152495,
      "longitude_deg": -55.730284160003066,
      "semi_major_axis_km": 6950.18836674128,
      "eccentricity": 0.0002817,
      "inclination_deg": 69.9977,
      "raan_deg": 296.1621,
      "arg_perigee_deg": 267.411,
      "mean_anomaly_deg": 92.6727,
      "mean_motion_rev_day": 14.98331463
    }
  ]
}